*******************************************************************************
Ephemeris / WWW_USER Mon Jul 15 19:17:49 2024 Pasadena, USA      / Horizons    
*******************************************************************************
Target body name: (2018 YU2)                      {source: JPL#5}
Center body name: Earth (399)                     {source: DE441}
Center-site name: Gemini South Obs., Cerro Pachon
*******************************************************************************
Start time      : A.D. 2018-Dec-23 23:54:00.0000 UT      
Stop  time      : A.D. 2018-Dec-24 09:30:00.0000 UT      
Step-size       : 1 minutes
*******************************************************************************
Target pole/equ : undefined
Target radii    : undefined                                                    
Center geodetic : 289.2634, -30.2406227, 2.71233  {E-lon(deg),Lat(deg),Alt(km)}
Center cylindric: 289.2634,5517.21435,-3194.81213 {E-lon(deg),Dxy(km),Dz(km)}
Center pole/equ : ITRF93                          {East-longitude positive}
Center radii    : 6378.137, 6378.137, 6356.752 km {Equator_a, b, pole_c}       
Target primary  : Sun
Vis. interferer : MOON (R_eq= 1737.400) km        {source: DE441}
Rel. light bend : Sun                             {source: DE441}
Rel. lght bnd GM: 1.3271E+11 km^3/s^2                                          
Small-body perts: Yes                             {source: SB441-N16}
Atmos refraction: NO (AIRLESS)
RA format       : HMS
Time format     : CAL 
Calendar mode   : Mixed Julian/Gregorian
RTS-only print  : NO       
EOP file        : eop.240715.p241008                                           
EOP coverage    : DATA-BASED 1962-JAN-20 TO 2024-JUL-15. PREDICTS-> 2024-OCT-07
Units conversion: 1 au= 149597870.700 km, c= 299792.458 km/s, 1 day= 86400.0 s 
Table cut-offs 1: Elevation (-90.0deg=NO ),Airmass (>38.000=NO), Daylight (YES)
Table cut-offs 2: Solar elongation (  0.0,180.0=NO ),Local Hour Angle( 0.0=NO )
Table cut-offs 3: RA/DEC angular rate (     0.0=NO )                           
*******************************************************************************
Initial IAU76/J2000 heliocentric ecliptic osculating elements (au, days, deg.):
  EPOCH=  2458477.5 ! 2018-Dec-25.00 (TDB)         Residual RMS= .22887        
   EC= .1533598773405833   QR= .920984914841031    TP= 2458549.1486254167      
   OM= 279.4515303175068   W=  253.4059234937716   IN= 2.850769624588425       
  Equivalent ICRF heliocentric cartesian coordinates (au, au/d):
   X=-6.842297687009524E-02  Y= 9.429126817220428E-01  Z= 4.143187104036840E-01
  VX=-1.695115058702848E-02 VY=-2.997207899955317E-03 VZ=-2.239432528215744E-03
Asteroid physical parameters (km, seconds, rotational period in hours):        
   GM= n.a.                RAD= n.a.               ROTPER= n.a.                
   H= 26.5                 G= .150                 B-V= n.a.                   
                           ALBEDO= n.a.            STYP= n.a.                  
*******************************************************************************
 Date__(UT)__HR:MN     R.A._________(ICRF)_________DEC
******************************************************
$$SOE
 2018-Dec-24 01:57  m  07 37 11.043770 +27 55 38.52412
 2018-Dec-24 01:58  m  07 37 11.110296 +27 55 37.09758
 2018-Dec-24 01:59  m  07 37 11.176644 +27 55 35.67036
 2018-Dec-24 02:00  m  07 37 11.242813 +27 55 34.24245
 2018-Dec-24 02:01  m  07 37 11.308805 +27 55 32.81384
 2018-Dec-24 02:02  m  07 37 11.374619 +27 55 31.38454
 2018-Dec-24 02:03  m  07 37 11.440256 +27 55 29.95453
 2018-Dec-24 02:04  m  07 37 11.505717 +27 55 28.52381
 2018-Dec-24 02:05  m  07 37 11.571002 +27 55 27.09237
 2018-Dec-24 02:06  m  07 37 11.636111 +27 55 25.66022
 2018-Dec-24 02:07  m  07 37 11.701045 +27 55 24.22735
 2018-Dec-24 02:08  m  07 37 11.765804 +27 55 22.79374
 2018-Dec-24 02:09  m  07 37 11.830388 +27 55 21.35940
 2018-Dec-24 02:10  m  07 37 11.894798 +27 55 19.92433
 2018-Dec-24 02:11  m  07 37 11.959035 +27 55 18.48851
 2018-Dec-24 02:12  m  07 37 12.023098 +27 55 17.05194
 2018-Dec-24 02:13  m  07 37 12.086989 +27 55 15.61462
 2018-Dec-24 02:14  m  07 37 12.150707 +27 55 14.17654
 2018-Dec-24 02:15  m  07 37 12.214254 +27 55 12.73770
 2018-Dec-24 02:16  m  07 37 12.277628 +27 55 11.29809
 2018-Dec-24 02:17  m  07 37 12.340832 +27 55 09.85771
 2018-Dec-24 02:18  m  07 37 12.403865 +27 55 08.41656
 2018-Dec-24 02:19  m  07 37 12.466728 +27 55 06.97462
 2018-Dec-24 02:20  m  07 37 12.529421 +27 55 05.53190
 2018-Dec-24 02:21  m  07 37 12.591945 +27 55 04.08838
 2018-Dec-24 02:22  m  07 37 12.654300 +27 55 02.64408
 2018-Dec-24 02:23  m  07 37 12.716487 +27 55 01.19897
 2018-Dec-24 02:24  m  07 37 12.778506 +27 54 59.75305
 2018-Dec-24 02:25  m  07 37 12.840358 +27 54 58.30633
 2018-Dec-24 02:26  m  07 37 12.902042 +27 54 56.85879
 2018-Dec-24 02:27  m  07 37 12.963560 +27 54 55.41044
 2018-Dec-24 02:28  m  07 37 13.024912 +27 54 53.96126
 2018-Dec-24 02:29  m  07 37 13.086099 +27 54 52.51125
 2018-Dec-24 02:30  m  07 37 13.147120 +27 54 51.06042
 2018-Dec-24 02:31  m  07 37 13.207977 +27 54 49.60874
 2018-Dec-24 02:32  m  07 37 13.268670 +27 54 48.15622
 2018-Dec-24 02:33  m  07 37 13.329199 +27 54 46.70286
 2018-Dec-24 02:34  m  07 37 13.389565 +27 54 45.24865
 2018-Dec-24 02:35  m  07 37 13.449769 +27 54 43.79358
 2018-Dec-24 02:36  m  07 37 13.509811 +27 54 42.33765
 2018-Dec-24 02:37  m  07 37 13.569691 +27 54 40.88086
 2018-Dec-24 02:38  m  07 37 13.629410 +27 54 39.42320
 2018-Dec-24 02:39  m  07 37 13.688968 +27 54 37.96466
 2018-Dec-24 02:40  m  07 37 13.748366 +27 54 36.50525
 2018-Dec-24 02:41  m  07 37 13.807605 +27 54 35.04496
 2018-Dec-24 02:42  m  07 37 13.866685 +27 54 33.58378
 2018-Dec-24 02:43  m  07 37 13.925607 +27 54 32.12171
 2018-Dec-24 02:44  m  07 37 13.984370 +27 54 30.65875
 2018-Dec-24 02:45  m  07 37 14.042976 +27 54 29.19488
 2018-Dec-24 02:46  m  07 37 14.101426 +27 54 27.73012
 2018-Dec-24 02:47  m  07 37 14.159718 +27 54 26.26444
 2018-Dec-24 02:48  m  07 37 14.217856 +27 54 24.79785
 2018-Dec-24 02:49  m  07 37 14.275837 +27 54 23.33035
 2018-Dec-24 02:50  m  07 37 14.333665 +27 54 21.86192
 2018-Dec-24 02:51  m  07 37 14.391338 +27 54 20.39257
 2018-Dec-24 02:52  m  07 37 14.448857 +27 54 18.92229
 2018-Dec-24 02:53  m  07 37 14.506223 +27 54 17.45107
 2018-Dec-24 02:54  m  07 37 14.563437 +27 54 15.97892
 2018-Dec-24 02:55  m  07 37 14.620499 +27 54 14.50582
 2018-Dec-24 02:56  m  07 37 14.677410 +27 54 13.03178
 2018-Dec-24 02:57  m  07 37 14.734170 +27 54 11.55679
 2018-Dec-24 02:58  m  07 37 14.790779 +27 54 10.08084
 2018-Dec-24 02:59  m  07 37 14.847239 +27 54 08.60393
 2018-Dec-24 03:00  m  07 37 14.903550 +27 54 07.12606
 2018-Dec-24 03:01  m  07 37 14.959713 +27 54 05.64722
 2018-Dec-24 03:02  m  07 37 15.015727 +27 54 04.16741
 2018-Dec-24 03:03  m  07 37 15.071594 +27 54 02.68663
 2018-Dec-24 03:04  m  07 37 15.127315 +27 54 01.20486
 2018-Dec-24 03:05  m  07 37 15.182889 +27 53 59.72211
 2018-Dec-24 03:06  m  07 37 15.238318 +27 53 58.23838
 2018-Dec-24 03:07  m  07 37 15.293602 +27 53 56.75365
 2018-Dec-24 03:08  m  07 37 15.348741 +27 53 55.26793
 2018-Dec-24 03:09  m  07 37 15.403737 +27 53 53.78120
 2018-Dec-24 03:10  m  07 37 15.458590 +27 53 52.29347
 2018-Dec-24 03:11  m  07 37 15.513300 +27 53 50.80474
 2018-Dec-24 03:12  m  07 37 15.567868 +27 53 49.31499
 2018-Dec-24 03:13  m  07 37 15.622295 +27 53 47.82423
 2018-Dec-24 03:14  m  07 37 15.676581 +27 53 46.33245
 2018-Dec-24 03:15  m  07 37 15.730727 +27 53 44.83964
 2018-Dec-24 03:16  m  07 37 15.784734 +27 53 43.34581
 2018-Dec-24 03:17  m  07 37 15.838602 +27 53 41.85094
 2018-Dec-24 03:18  m  07 37 15.892332 +27 53 40.35504
 2018-Dec-24 03:19  m  07 37 15.945924 +27 53 38.85810
 2018-Dec-24 03:20  m  07 37 15.999379 +27 53 37.36012
 2018-Dec-24 03:21  m  07 37 16.052698 +27 53 35.86109
 2018-Dec-24 03:22  m  07 37 16.105881 +27 53 34.36101
 2018-Dec-24 03:23  m  07 37 16.158930 +27 53 32.85988
 2018-Dec-24 03:24  m  07 37 16.211844 +27 53 31.35769
 2018-Dec-24 03:25  m  07 37 16.264624 +27 53 29.85443
 2018-Dec-24 03:26  m  07 37 16.317271 +27 53 28.35012
 2018-Dec-24 03:27  m  07 37 16.369786 +27 53 26.84473
 2018-Dec-24 03:28  m  07 37 16.422169 +27 53 25.33827
 2018-Dec-24 03:29  m  07 37 16.474421 +27 53 23.83073
 2018-Dec-24 03:30  m  07 37 16.526542 +27 53 22.32212
 2018-Dec-24 03:31  m  07 37 16.578534 +27 53 20.81242
 2018-Dec-24 03:32  m  07 37 16.630397 +27 53 19.30163
 2018-Dec-24 03:33  m  07 37 16.682131 +27 53 17.78975
 2018-Dec-24 03:34  m  07 37 16.733738 +27 53 16.27678
 2018-Dec-24 03:35  m  07 37 16.785217 +27 53 14.76271
 2018-Dec-24 03:36  m  07 37 16.836570 +27 53 13.24754
 2018-Dec-24 03:37  m  07 37 16.887797 +27 53 11.73126
 2018-Dec-24 03:38  m  07 37 16.938900 +27 53 10.21388
 2018-Dec-24 03:39  m  07 37 16.989878 +27 53 08.69538
 2018-Dec-24 03:40  m  07 37 17.040732 +27 53 07.17577
 2018-Dec-24 03:41  m  07 37 17.091463 +27 53 05.65503
 2018-Dec-24 03:42  m  07 37 17.142072 +27 53 04.13318
 2018-Dec-24 03:43  m  07 37 17.192559 +27 53 02.61020
 2018-Dec-24 03:44  m  07 37 17.242926 +27 53 01.08609
 2018-Dec-24 03:45  m  07 37 17.293172 +27 52 59.56085
 2018-Dec-24 03:46  m  07 37 17.343299 +27 52 58.03447
 2018-Dec-24 03:47  m  07 37 17.393307 +27 52 56.50696
 2018-Dec-24 03:48  m  07 37 17.443196 +27 52 54.97830
 2018-Dec-24 03:49  m  07 37 17.492969 +27 52 53.44849
 2018-Dec-24 03:50  m  07 37 17.542625 +27 52 51.91754
 2018-Dec-24 03:51  m  07 37 17.592164 +27 52 50.38543
 2018-Dec-24 03:52  m  07 37 17.641589 +27 52 48.85217
 2018-Dec-24 03:53  m  07 37 17.690899 +27 52 47.31775
 2018-Dec-24 03:54  m  07 37 17.740095 +27 52 45.78217
 2018-Dec-24 03:55  m  07 37 17.789178 +27 52 44.24542
 2018-Dec-24 03:56  m  07 37 17.838149 +27 52 42.70751
 2018-Dec-24 03:57  m  07 37 17.887008 +27 52 41.16842
 2018-Dec-24 03:58  m  07 37 17.935757 +27 52 39.62816
 2018-Dec-24 03:59  m  07 37 17.984395 +27 52 38.08672
